{
"type": "FeatureCollection",
"name": "addresses",
"crs": { "type": "name", "properties": { "name": "urn:ogc:def:crs:OGC:1.3:CRS84" } },
"features": [
{ "type": "Feature", "properties": { "osm_id": 3475140099, "amenity": "cafe", "addr:housenumber": "61", "name": "Coffee In", "shop": null, "operator": null, "tourism": null, "ref": null, "brand": null, "access": null, "addr:postcode": "70125", "opening_hours": "Mo-Sa 03:40-18:40", "addr:city": "Bari", "addr:street": "Viale Giuseppe di Vittorio", "phone": null, "addr:country": null, "entrance": null, "door": null, "website": null, "payment:bitcoin": null, "currency:XBT": null, "payment:cryptocurrencies": null, "payment:contanti": null, "check_date:currency:XBT": null, "cuisine": null, "fax": null, "brand:wikidata": null, "wheelchair": null, "old_name": null, "healthcare": null }, "geometry": { "type": "Point", "coordinates": [ 16.8750414, 41.107279 ] } },
{ "type": "Feature", "properties": { "osm_id": 3475140096, "amenity": null, "addr:housenumber": "27", "name": "Il Divino Bacco", "shop": "alcohol", "operator": "Roberto Columbo", "tourism": null, "ref": null, "brand": null, "access": null, "addr:postcode": null, "opening_hours": null, "addr:city": "Bari", "addr:street": "Via Giuseppe di Vittorio", "phone": "+39 3899696248", "addr:country": "IT", "entrance": null, "door": null, "website": null, "payment:bitcoin": null, "currency:XBT": null, "payment:cryptocurrencies": null, "payment:contanti": null, "check_date:currency:XBT": null, "cuisine": null, "fax": null, "brand:wikidata": null, "wheelchair": null, "old_name": null, "healthcare": null }, "geometry": { "type": "Point", "coordinates": [ 16.8768368, 41.1075338 ] } },
{ "type": "Feature", "properties": { "osm_id": 5747096265, "amenity": "bar", "addr:housenumber": "199", "name": "Summit Club", "shop": null, "operator": null, "tourism": null, "ref": null, "brand": null, "access": null, "addr:postcode": "70126", "opening_hours": null, "addr:city": null, "addr:street": "Via Giuseppe Re David", "phone": null, "addr:country": null, "entrance": null, "door": null, "website": null, "payment:bitcoin": null, "currency:XBT": null, "payment:cryptocurrencies": null, "payment:contanti": null, "check_date:currency:XBT": null, "cuisine": null, "fax": null, "brand:wikidata": null, "wheelchair": null, "old_name": null, "healthcare": null }, "geometry": { "type": "Point", "coordinates": [ 16.8774331, 41.1077769 ] } },
{ "type": "Feature", "properties": { "osm_id": 11414859226, "amenity": null, "addr:housenumber": "4", "name": "Ingresso Via Orabona", "shop": null, "operator": null, "tourism": null, "ref": null, "brand": null, "access": null, "addr:postcode": "70125", "opening_hours": null, "addr:city": "Bari", "addr:street": "Via Edoardo Orabona", "phone": null, "addr:country": null, "entrance": "gate", "door": "gate", "website": null, "payment:bitcoin": null, "currency:XBT": null, "payment:cryptocurrencies": null, "payment:contanti": null, "check_date:currency:XBT": null, "cuisine": null, "fax": null, "brand:wikidata": null, "wheelchair": null, "old_name": null, "healthcare": null }, "geometry": { "type": "Point", "coordinates": [ 16.88043, 41.1079369 ] } },
{ "type": "Feature", "properties": { "osm_id": 12393849252, "amenity": null, "addr:housenumber": "14sub 5", "name": "Galleria 1957", "shop": null, "operator": null, "tourism": "gallery", "ref": null, "brand": null, "access": null, "addr:postcode": "70125", "opening_hours": "galleria1957.it", "addr:city": "Bari", "addr:street": "Via Angelo Bertolini", "phone": null, "addr:country": null, "entrance": null, "door": null, "website": "galleria1957.it", "payment:bitcoin": "yes", "currency:XBT": "yes", "payment:cryptocurrencies": "yes", "payment:contanti": null, "check_date:currency:XBT": null, "cuisine": null, "fax": null, "brand:wikidata": null, "wheelchair": null, "old_name": null, "healthcare": null }, "geometry": { "type": "Point", "coordinates": [ 16.8762117, 41.1081906 ] } },
{ "type": "Feature", "properties": { "osm_id": 12393849251, "amenity": null, "addr:housenumber": "14sub 6", "name": "Studio Olisticum", "shop": "massage", "operator": "Homabio", "tourism": null, "ref": null, "brand": null, "access": null, "addr:postcode": "70125", "opening_hours": "solo su appuntamento olisticum.com", "addr:city": "Bari", "addr:street": "Via Angelo Bertolini", "phone": "+39 389 623 9098", "addr:country": null, "entrance": null, "door": null, "website": "olisticum.com", "payment:bitcoin": null, "currency:XBT": "yes", "payment:cryptocurrencies": "yes", "payment:contanti": "yes", "check_date:currency:XBT": "2024-12-05", "cuisine": null, "fax": null, "brand:wikidata": null, "wheelchair": null, "old_name": null, "healthcare": null }, "geometry": { "type": "Point", "coordinates": [ 16.8762336, 41.1081883 ] } },
{ "type": "Feature", "properties": { "osm_id": 9001044921, "amenity": "restaurant", "addr:housenumber": "81", "name": "Est!", "shop": null, "operator": null, "tourism": null, "ref": null, "brand": null, "access": null, "addr:postcode": null, "opening_hours": null, "addr:city": "Bari", "addr:street": "Via Gioacchino Toma", "phone": null, "addr:country": null, "entrance": null, "door": null, "website": null, "payment:bitcoin": null, "currency:XBT": null, "payment:cryptocurrencies": null, "payment:contanti": null, "check_date:currency:XBT": null, "cuisine": null, "fax": null, "brand:wikidata": null, "wheelchair": null, "old_name": null, "healthcare": null }, "geometry": { "type": "Point", "coordinates": [ 16.8761258, 41.1086262 ] } },
{ "type": "Feature", "properties": { "osm_id": 9972776197, "amenity": null, "addr:housenumber": "88", "name": "Autocarrozzeria Muzio", "shop": "car_repair", "operator": null, "tourism": null, "ref": "58", "brand": null, "access": null, "addr:postcode": null, "opening_hours": null, "addr:city": "Bari", "addr:street": "Via Gioacchino Toma", "phone": null, "addr:country": null, "entrance": null, "door": null, "website": null, "payment:bitcoin": null, "currency:XBT": null, "payment:cryptocurrencies": null, "payment:contanti": null, "check_date:currency:XBT": null, "cuisine": null, "fax": null, "brand:wikidata": null, "wheelchair": null, "old_name": null, "healthcare": null }, "geometry": { "type": "Point", "coordinates": [ 16.8761709, 41.1086342 ] } },
{ "type": "Feature", "properties": { "osm_id": 849689878, "amenity": "fast_food", "addr:housenumber": "95", "name": "Kebabberia Campus", "shop": null, "operator": null, "tourism": null, "ref": null, "brand": null, "access": null, "addr:postcode": "70125", "opening_hours": null, "addr:city": null, "addr:street": "Via Gioacchino Toma", "phone": null, "addr:country": null, "entrance": null, "door": null, "website": null, "payment:bitcoin": null, "currency:XBT": null, "payment:cryptocurrencies": null, "payment:contanti": null, "check_date:currency:XBT": null, "cuisine": "kebab", "fax": null, "brand:wikidata": null, "wheelchair": null, "old_name": null, "healthcare": null }, "geometry": { "type": "Point", "coordinates": [ 16.8765011, 41.1085564 ] } },
{ "type": "Feature", "properties": { "osm_id": 2671680805, "amenity": null, "addr:housenumber": "193 C\/D\/E", "name": "IdeaPrint", "shop": "stationery", "operator": "Antonia Fornarelli", "tourism": null, "ref": null, "brand": null, "access": null, "addr:postcode": null, "opening_hours": null, "addr:city": "Bari", "addr:street": "Via Giuseppe Re David", "phone": "+39 0805424587", "addr:country": "IT", "entrance": null, "door": null, "website": null, "payment:bitcoin": null, "currency:XBT": null, "payment:cryptocurrencies": null, "payment:contanti": null, "check_date:currency:XBT": null, "cuisine": null, "fax": "+39 0805424587", "brand:wikidata": null, "wheelchair": null, "old_name": null, "healthcare": null }, "geometry": { "type": "Point", "coordinates": [ 16.8768431, 41.1092271 ] } },
{ "type": "Feature", "properties": { "osm_id": 10982026789, "amenity": null, "addr:housenumber": "148", "name": null, "shop": null, "operator": null, "tourism": null, "ref": null, "brand": null, "access": null, "addr:postcode": null, "opening_hours": null, "addr:city": null, "addr:street": "Via Giovanni Amendola", "phone": null, "addr:country": null, "entrance": null, "door": null, "website": null, "payment:bitcoin": null, "currency:XBT": null, "payment:cryptocurrencies": null, "payment:contanti": null, "check_date:currency:XBT": null, "cuisine": null, "fax": null, "brand:wikidata": null, "wheelchair": null, "old_name": null, "healthcare": null }, "geometry": { "type": "Point", "coordinates": [ 16.8852363, 41.1078182 ] } },
{ "type": "Feature", "properties": { "osm_id": 10982002265, "amenity": null, "addr:housenumber": "146", "name": null, "shop": null, "operator": null, "tourism": null, "ref": null, "brand": null, "access": null, "addr:postcode": null, "opening_hours": null, "addr:city": null, "addr:street": "Via Giovanni Amendola", "phone": null, "addr:country": null, "entrance": null, "door": null, "website": null, "payment:bitcoin": null, "currency:XBT": null, "payment:cryptocurrencies": null, "payment:contanti": null, "check_date:currency:XBT": null, "cuisine": null, "fax": null, "brand:wikidata": null, "wheelchair": null, "old_name": null, "healthcare": null }, "geometry": { "type": "Point", "coordinates": [ 16.8851723, 41.1079231 ] } },
{ "type": "Feature", "properties": { "osm_id": 10982028052, "amenity": null, "addr:housenumber": "169a", "name": null, "shop": null, "operator": null, "tourism": null, "ref": null, "brand": null, "access": null, "addr:postcode": null, "opening_hours": null, "addr:city": null, "addr:street": "Via Giovanni Amendola", "phone": null, "addr:country": null, "entrance": null, "door": null, "website": null, "payment:bitcoin": null, "currency:XBT": null, "payment:cryptocurrencies": null, "payment:contanti": null, "check_date:currency:XBT": null, "cuisine": null, "fax": null, "brand:wikidata": null, "wheelchair": null, "old_name": null, "healthcare": null }, "geometry": { "type": "Point", "coordinates": [ 16.8844629, 41.1088585 ] } },
{ "type": "Feature", "properties": { "osm_id": 7883716098, "amenity": null, "addr:housenumber": "136", "name": "Ford", "shop": "car", "operator": null, "tourism": null, "ref": null, "brand": "Ford", "access": null, "addr:postcode": "70126", "opening_hours": null, "addr:city": "Bari", "addr:street": "Via Giovanni Amendola", "phone": null, "addr:country": null, "entrance": null, "door": null, "website": null, "payment:bitcoin": null, "currency:XBT": null, "payment:cryptocurrencies": null, "payment:contanti": null, "check_date:currency:XBT": null, "cuisine": null, "fax": null, "brand:wikidata": "Q44294", "wheelchair": null, "old_name": null, "healthcare": null }, "geometry": { "type": "Point", "coordinates": [ 16.8855844, 41.1087984 ] } },
{ "type": "Feature", "properties": { "osm_id": 1168896091, "amenity": null, "addr:housenumber": "165A", "name": "Ingresso Via Amendola", "shop": null, "operator": null, "tourism": null, "ref": null, "brand": null, "access": "yes", "addr:postcode": "70126", "opening_hours": null, "addr:city": "Bari", "addr:street": "Via Giovanni Amendola", "phone": null, "addr:country": null, "entrance": "yes", "door": "gate", "website": null, "payment:bitcoin": null, "currency:XBT": null, "payment:cryptocurrencies": null, "payment:contanti": null, "check_date:currency:XBT": null, "cuisine": null, "fax": null, "brand:wikidata": null, "wheelchair": "yes", "old_name": null, "healthcare": null }, "geometry": { "type": "Point", "coordinates": [ 16.8835202, 41.1102849 ] } },
{ "type": "Feature", "properties": { "osm_id": 10981990991, "amenity": null, "addr:housenumber": "165", "name": null, "shop": null, "operator": null, "tourism": null, "ref": null, "brand": null, "access": null, "addr:postcode": null, "opening_hours": null, "addr:city": null, "addr:street": "Via Giovanni Amendola", "phone": null, "addr:country": null, "entrance": null, "door": null, "website": null, "payment:bitcoin": null, "currency:XBT": null, "payment:cryptocurrencies": null, "payment:contanti": null, "check_date:currency:XBT": null, "cuisine": null, "fax": null, "brand:wikidata": null, "wheelchair": null, "old_name": null, "healthcare": null }, "geometry": { "type": "Point", "coordinates": [ 16.8832856, 41.1106241 ] } },
{ "type": "Feature", "properties": { "osm_id": 1364984750, "amenity": "theatre", "addr:housenumber": "18", "name": "Teatro Brav√≤", "shop": null, "operator": null, "tourism": null, "ref": null, "brand": null, "access": null, "addr:postcode": "70126", "opening_hours": null, "addr:city": "Bari", "addr:street": "Strada Stoppelli", "phone": null, "addr:country": null, "entrance": null, "door": null, "website": null, "payment:bitcoin": null, "currency:XBT": null, "payment:cryptocurrencies": null, "payment:contanti": null, "check_date:currency:XBT": null, "cuisine": null, "fax": null, "brand:wikidata": null, "wheelchair": null, "old_name": "Salottino", "healthcare": null }, "geometry": { "type": "Point", "coordinates": [ 16.8863022, 41.1080903 ] } },
{ "type": "Feature", "properties": { "osm_id": 3786030661, "amenity": "restaurant", "addr:housenumber": "184", "name": "L'incontro", "shop": null, "operator": null, "tourism": null, "ref": null, "brand": null, "access": null, "addr:postcode": "70126", "opening_hours": null, "addr:city": null, "addr:street": "Via Giuseppe Re David", "phone": null, "addr:country": null, "entrance": null, "door": null, "website": null, "payment:bitcoin": null, "currency:XBT": null, "payment:cryptocurrencies": null, "payment:contanti": null, "check_date:currency:XBT": null, "cuisine": "pizza", "fax": null, "brand:wikidata": null, "wheelchair": null, "old_name": null, "healthcare": null }, "geometry": { "type": "Point", "coordinates": [ 16.87666, 41.1112382 ] } },
{ "type": "Feature", "properties": { "osm_id": 659539692, "amenity": "pharmacy", "addr:housenumber": "184\/a", "name": "Capezzuto Giovanni", "shop": null, "operator": null, "tourism": null, "ref": null, "brand": null, "access": null, "addr:postcode": null, "opening_hours": null, "addr:city": "Bari", "addr:street": "Via Giuseppe Re David", "phone": null, "addr:country": null, "entrance": null, "door": null, "website": null, "payment:bitcoin": null, "currency:XBT": null, "payment:cryptocurrencies": null, "payment:contanti": null, "check_date:currency:XBT": null, "cuisine": null, "fax": null, "brand:wikidata": null, "wheelchair": null, "old_name": null, "healthcare": "pharmacy" }, "geometry": { "type": "Point", "coordinates": [ 16.8765873, 41.1114766 ] } },
{ "type": "Feature", "properties": { "osm_id": 1472139008, "amenity": null, "addr:housenumber": "126B", "name": null, "shop": null, "operator": null, "tourism": null, "ref": null, "brand": null, "access": null, "addr:postcode": "70126", "opening_hours": null, "addr:city": "Bari", "addr:street": "Via Giovanni Amendola", "phone": null, "addr:country": null, "entrance": "main", "door": null, "website": null, "payment:bitcoin": null, "currency:XBT": null, "payment:cryptocurrencies": null, "payment:contanti": null, "check_date:currency:XBT": null, "cuisine": null, "fax": null, "brand:wikidata": null, "wheelchair": null, "old_name": null, "healthcare": null }, "geometry": { "type": "Point", "coordinates": [ 16.8830765, 41.1113431 ] } },
{ "type": "Feature", "properties": { "osm_id": 11817195163, "amenity": null, "addr:housenumber": "126A", "name": null, "shop": null, "operator": null, "tourism": null, "ref": null, "brand": null, "access": null, "addr:postcode": "70126", "opening_hours": null, "addr:city": "Bari", "addr:street": "Via Giovanni Amendola", "phone": null, "addr:country": null, "entrance": "yes", "door": null, "website": null, "payment:bitcoin": null, "currency:XBT": null, "payment:cryptocurrencies": null, "payment:contanti": null, "check_date:currency:XBT": null, "cuisine": null, "fax": null, "brand:wikidata": null, "wheelchair": null, "old_name": null, "healthcare": null }, "geometry": { "type": "Point", "coordinates": [ 16.8829436, 41.1115584 ] } },
{ "type": "Feature", "properties": { "osm_id": 11817195153, "amenity": null, "addr:housenumber": "126C", "name": null, "shop": null, "operator": null, "tourism": null, "ref": null, "brand": null, "access": null, "addr:postcode": "70126", "opening_hours": null, "addr:city": "Bari", "addr:street": "Via Giovanni Amendola", "phone": null, "addr:country": null, "entrance": "main", "door": null, "website": null, "payment:bitcoin": null, "currency:XBT": null, "payment:cryptocurrencies": null, "payment:contanti": null, "check_date:currency:XBT": null, "cuisine": null, "fax": null, "brand:wikidata": null, "wheelchair": null, "old_name": null, "healthcare": null }, "geometry": { "type": "Point", "coordinates": [ 16.8832658, 41.1111587 ] } }
]
}
